[{"OBJECT_NAME":"STARLINK-2502","OBJECT_ID":"2021-036BD","EPOCH":"2026-03-10T00:00:02.999808","MEAN_MOTION":15.28340514,"ECCENTRICITY":9.335e-5,"INCLINATION":53.1499,"RA_OF_ASC_NODE":99.3642,"ARG_OF_PERICENTER":50.0408,"MEAN_ANOMALY":293.7111,"EPHEMERIS_TYPE":0,"CLASSIFICATION_TYPE":"U","NORAD_CAT_ID":48327,"ELEMENT_SET_NO":999,"REV_AT_EPOCH":579,"BSTAR":0.043872504,"MEAN_MOTION_DOT":0.01350461,"MEAN_MOTION_DDOT":0},{"OBJECT_NAME":"SHERPA-FX2 & TAGSAT-2","OBJECT_ID":"2021-059CH","EPOCH":"2026-03-09T23:13:51.251520","MEAN_MOTION":15.52139464,"ECCENTRICITY":0.0006571,"INCLINATION":97.6905,"RA_OF_ASC_NODE":255.7235,"ARG_OF_PERICENTER":345.3561,"MEAN_ANOMALY":14.7499,"EPHEMERIS_TYPE":0,"CLASSIFICATION_TYPE":"U","NORAD_CAT_ID":48958,"ELEMENT_SET_NO":999,"REV_AT_EPOCH":26201,"BSTAR":0.0003861171,"MEAN_MOTION_DOT":0.00023295,"MEAN_MOTION_DDOT":0}]
